[
    {
        "Altitude(m)": 605470.738418409,
        "Argument of Periapsis(deg)": 0.0,
        "Eccentricity": 0.0,
        "Inclination(deg)": 60.0,
        "Latitude(deg)": 27.9880386711349,
        "Longitude(deg)": -52.73708748843792,
        "Mean Anomaly(deg)": -212.7273,
        "RAAN(deg)": 245.0,
        "Satellite Name": "Test1 1087",
        "Satellite Number": 1087,
        "Semi-Major Axis(m)": 6980739.136638005,
        "Time(s)": 0
    },
    {
        "Altitude(m)": 605395.7770605095,
        "Argument of Periapsis(deg)": 0.00010418945913296404,
        "Eccentricity": 0.0,
        "Inclination(deg)": 60.0,
        "Latitude(deg)": 27.4737297601671,
        "Longitude(deg)": -52.38389949665683,
        "Mean Anomaly(deg)": -212.1071938545382,
        "RAAN(deg)": 244.99957995086027,
        "Satellite Name": "Test1 1087",
        "Satellite Number": 1087,
        "Semi-Major Axis(m)": 6980739.136638005,
        "Time(s)": 10
    },
    {
        "Altitude(m)": 605322.6183766929,
        "Argument of Periapsis(deg)": 0.0002083789182659281,
        "Eccentricity": 0.0,
        "Inclination(deg)": 60.0,
        "Latitude(deg)": 26.958275055985656,
        "Longitude(deg)": -52.034359688215254,
        "Mean Anomaly(deg)": -211.48708770907638,
        "RAAN(deg)": 244.9991599017205,
        "Satellite Name": "Test1 1087",
        "Satellite Number": 1087,
        "Semi-Major Axis(m)": 6980739.136638005,
        "Time(s)": 20
    },
    {
        "Altitude(m)": 605251.3180411579,
        "Argument of Periapsis(deg)": 0.00031256837739889213,
        "Eccentricity": 0.0,
        "Inclination(deg)": 60.0,
        "Latitude(deg)": 26.44170906090131,
        "Longitude(deg)": -51.68836341396517,
        "Mean Anomaly(deg)": -210.86698156361456,
        "RAAN(deg)": 244.9987398525808,
        "Satellite Name": "Test1 1087",
        "Satellite Number": 1087,
        "Semi-Major Axis(m)": 6980739.136638005,
        "Time(s)": 30
    },
    {
        "Altitude(m)": 605181.9310001524,
        "Argument of Periapsis(deg)": 0.0004167578365318562,
        "Eccentricity": 0.0,
        "Inclination(deg)": 60.0,
        "Latitude(deg)": 25.924065422936813,
        "Longitude(deg)": -51.3458077572112,
        "Mean Anomaly(deg)": -210.2468754181527,
        "RAAN(deg)": 244.99831980344103,
        "Satellite Name": "Test1 1087",
        "Satellite Number": 1087,
        "Semi-Major Axis(m)": 6980739.136638005,
        "Time(s)": 40
    },
    {
        "Altitude(m)": 605114.5114430413,
        "Argument of Periapsis(deg)": 0.0005209472956648203,
        "Eccentricity": 0.0,
        "Inclination(deg)": 60.0,
        "Latitude(deg)": 25.405376968380246,
        "Longitude(deg)": -51.00659247758809,
        "Mean Anomaly(deg)": -209.62676927269084,
        "RAAN(deg)": 244.9978997543013,
        "Satellite Name": "Test1 1087",
        "Satellite Number": 1087,
        "Semi-Major Axis(m)": 6980739.136638005,
        "Time(s)": 50
    },
    {
        "Altitude(m)": 605049.1127736726,
        "Argument of Periapsis(deg)": 0.0006251367547977843,
        "Eccentricity": 0.0,
        "Inclination(deg)": 60.0,
        "Latitude(deg)": 24.885675733222364,
        "Longitude(deg)": -50.67061944286437,
        "Mean Anomaly(deg)": -209.006663127229,
        "RAAN(deg)": 244.99747970516154,
        "Satellite Name": "Test1 1087",
        "Satellite Number": 1087,
        "Semi-Major Axis(m)": 6980739.136638005,
        "Time(s)": 60
    },
    {
        "Altitude(m)": 604985.787582097,
        "Argument of Periapsis(deg)": 0.0007293262139307483,
        "Eccentricity": 0.0,
        "Inclination(deg)": 60.0,
        "Latitude(deg)": 24.36499299351785,
        "Longitude(deg)": -50.33779206160378,
        "Mean Anomaly(deg)": -208.38655698176717,
        "RAAN(deg)": 244.99705965602183,
        "Satellite Name": "Test1 1087",
        "Satellite Number": 1087,
        "Semi-Major Axis(m)": 6980739.136638005,
        "Time(s)": 70
    },
    {
        "Altitude(m)": 604924.5876166741,
        "Argument of Periapsis(deg)": 0.0008335156730637124,
        "Eccentricity": 0.0,
        "Inclination(deg)": 60.0,
        "Latitude(deg)": 23.843359294704815,
        "Longitude(deg)": -50.00801622960267,
        "Mean Anomaly(deg)": -207.76645083630532,
        "RAAN(deg)": 244.99663960688207,
        "Satellite Name": "Test1 1087",
        "Satellite Number": 1087,
        "Semi-Major Axis(m)": 6980739.136638005,
        "Time(s)": 80
    },
    {
        "Altitude(m)": 604865.5637564909,
        "Argument of Periapsis(deg)": 0.0009377051321966765,
        "Eccentricity": 0.0,
        "Inclination(deg)": 60.0,
        "Latitude(deg)": 23.320804479925673,
        "Longitude(deg)": -49.68119976440225,
        "Mean Anomaly(deg)": -207.14634469084353,
        "RAAN(deg)": 244.99621955774234,
        "Satellite Name": "Test1 1087",
        "Satellite Number": 1087,
        "Semi-Major Axis(m)": 6980739.136638005,
        "Time(s)": 90
    },
    {
        "Altitude(m)": 604808.7659842172,
        "Argument of Periapsis(deg)": 0.0010418945913296407,
        "Eccentricity": 0.0,
        "Inclination(deg)": 60.0,
        "Latitude(deg)": 22.797357717381583,
        "Longitude(deg)": -49.35725184077429,
        "Mean Anomaly(deg)": -206.52623854538172,
        "RAAN(deg)": 244.99579950860257,
        "Satellite Name": "Test1 1087",
        "Satellite Number": 1087,
        "Semi-Major Axis(m)": 6980739.136638005,
        "Time(s)": 100
    },
    {
        "Altitude(m)": 604754.2433593308,
        "Argument of Periapsis(deg)": 0.0011460840504626045,
        "Eccentricity": 0.0,
        "Inclination(deg)": 60.0,
        "Latitude(deg)": 22.273047526757306,
        "Longitude(deg)": -49.036083940081404,
        "Mean Anomaly(deg)": -205.90613239991987,
        "RAAN(deg)": 244.99537945946287,
        "Satellite Name": "Test1 1087",
        "Satellite Number": 1087,
        "Semi-Major Axis(m)": 6980739.136638005,
        "Time(s)": 110
    },
    {
        "Altitude(m)": 604702.0439917805,
        "Argument of Periapsis(deg)": 0.0012502735095955685,
        "Eccentricity": 0.0,
        "Inclination(deg)": 60.0,
        "Latitude(deg)": 21.747901804753596,
        "Longitude(deg)": -48.71760928778208,
        "Mean Anomaly(deg)": -205.28602625445808,
        "RAAN(deg)": 244.9949594103231,
        "Satellite Name": "Test1 1087",
        "Satellite Number": 1087,
        "Semi-Major Axis(m)": 6980739.136638005,
        "Time(s)": 120
    },
    {
        "Altitude(m)": 604652.2150160598,
        "Argument of Periapsis(deg)": 0.0013544629687285324,
        "Eccentricity": 0.0,
        "Inclination(deg)": 60.0,
        "Latitude(deg)": 21.22194784975905,
        "Longitude(deg)": -48.4017422919644,
        "Mean Anomaly(deg)": -204.66592010899623,
        "RAAN(deg)": 244.99453936118337,
        "Satellite Name": "Test1 1087",
        "Satellite Number": 1087,
        "Semi-Major Axis(m)": 6980739.136638005,
        "Time(s)": 130
    },
    {
        "Altitude(m)": 604604.802565722,
        "Argument of Periapsis(deg)": 0.0014586524278614966,
        "Eccentricity": 0.0,
        "Inclination(deg)": 60.0,
        "Latitude(deg)": 20.695212385695022,
        "Longitude(deg)": -48.08839949578892,
        "Mean Anomaly(deg)": -204.04581396353439,
        "RAAN(deg)": 244.9941193120436,
        "Satellite Name": "Test1 1087",
        "Satellite Number": 1087,
        "Semi-Major Axis(m)": 6980739.136638005,
        "Time(s)": 140
    },
    {
        "Altitude(m)": 604559.8517483813,
        "Argument of Periapsis(deg)": 0.0015628418869944607,
        "Eccentricity": 0.0,
        "Inclination(deg)": 60.0,
        "Latitude(deg)": 20.16772158506731,
        "Longitude(deg)": -47.777499018096314,
        "Mean Anomaly(deg)": -203.42570781807257,
        "RAAN(deg)": 244.9936992629039,
        "Satellite Name": "Test1 1087",
        "Satellite Number": 1087,
        "Semi-Major Axis(m)": 6980739.136638005,
        "Time(s)": 150
    },
    {
        "Altitude(m)": 604517.4066211391,
        "Argument of Periapsis(deg)": 0.0016670313461274247,
        "Eccentricity": 0.0,
        "Inclination(deg)": 60.0,
        "Latitude(deg)": 19.639501091255752,
        "Longitude(deg)": -47.46895999505002,
        "Mean Anomaly(deg)": -202.80560167261072,
        "RAAN(deg)": 244.99327921376414,
        "Satellite Name": "Test1 1087",
        "Satellite Number": 1087,
        "Semi-Major Axis(m)": 6980739.136638005,
        "Time(s)": 160
    },
    {
        "Altitude(m)": 604477.5101665336,
        "Argument of Periapsis(deg)": 0.0017712208052603888,
        "Eccentricity": 0.0,
        "Inclination(deg)": 60.0,
        "Latitude(deg)": 19.11057604007112,
        "Longitude(deg)": -47.16270353568091,
        "Mean Anomaly(deg)": -202.18549552714884,
        "RAAN(deg)": 244.9928591646244,
        "Satellite Name": "Test1 1087",
        "Satellite Number": 1087,
        "Semi-Major Axis(m)": 6980739.136638005,
        "Time(s)": 170
    },
    {
        "Altitude(m)": 604440.2042689582,
        "Argument of Periapsis(deg)": 0.001875410264393353,
        "Eccentricity": 0.0,
        "Inclination(deg)": 60.0,
        "Latitude(deg)": 18.580971080610976,
        "Longitude(deg)": -46.85865216557851,
        "Mean Anomaly(deg)": -201.56538938168705,
        "RAAN(deg)": 244.99243911548464,
        "Satellite Name": "Test1 1087",
        "Satellite Number": 1087,
        "Semi-Major Axis(m)": 6980739.136638005,
        "Time(s)": 180
    },
    {
        "Altitude(m)": 604405.5296916184,
        "Argument of Periapsis(deg)": 0.0019795997235263173,
        "Eccentricity": 0.0,
        "Inclination(deg)": 60.0,
        "Latitude(deg)": 18.050710395443605,
        "Longitude(deg)": -46.556729271589504,
        "Mean Anomaly(deg)": -200.9452832362252,
        "RAAN(deg)": 244.99201906634494,
        "Satellite Name": "Test1 1087",
        "Satellite Number": 1087,
        "Semi-Major Axis(m)": 6980739.136638005,
        "Time(s)": 190
    }
]